ONEWEB-0012             
1 44057U 19010A   26189.38031209  .00000090  00000+0  20090-3 0  9995
2 44057  87.9077 224.5757 0001716  90.6942 269.4386 13.16595956354355
ONEWEB-0010             
1 44058U 19010B   26189.32966446  .00000013  00000+0 -73743-6 0  9992
2 44058  87.9080 224.5819 0002221 103.0186 257.1193 13.16593145354392
ONEWEB-0008             
1 44059U 19010C   26189.58298386 -.00000121  00000+0 -35085-3 0  9997
2 44059  87.9086 224.5266 0002273  89.9105 270.2286 13.16593264354543
ONEWEB-0007             
1 44060U 19010D   26189.48298453  .00000152  00000+0  36908-3 0  9990
2 44060  87.8990 254.9783 0001875 104.6496 255.4842 13.15548020354175
ONEWEB-0006             
1 44061U 19010E   26189.41088575  .00000227  00000+0  56810-3 0  9993
2 44061  87.9002 254.9591 0002224  99.4557 260.6825 13.15551184354215
ONEWEB-0011             
1 44062U 19010F   26189.45524563 -.00000043  00000+0 -14879-3 0  9997
2 44062  87.9001 254.9603 0002269  98.9074 261.2313 13.15549090354218
ONEWEB-0013             
1 45131U 20008A   26189.56505445 -.00000632  00000+0 -18725-2 0  9991
2 45131  87.8506  48.5107 0001231  50.7693 309.3543 13.09461514308868
ONEWEB-0017             
1 45132U 20008B   26189.53258919  .00000027  00000+0  41896-4 0  9993
2 45132  87.8819  32.0148 0001954  92.0754 268.0597 13.10377714310748
ONEWEB-0020             
1 45133U 20008C   26189.50201420 -.00000350  00000+0 -10399-2 0  9999
2 45133  87.8817  32.0201 0001860  85.5796 274.5544 13.10369241311130
ONEWEB-0021             
1 45134U 20008D   26189.59363084 -.00000708  00000+0 -20645-2 0  9996
2 45134  87.8813  32.0165 0001690  88.2363 271.8958 13.10372242311456
ONEWEB-0023             
1 45136U 20008F   26189.60466965 -.00000430  00000+0 -12692-2 0  9997
2 45136  87.8830  31.9981 0001879  80.8251 279.3089 13.10374787310884
ONEWEB-0024             
1 45137U 20008G   26189.50044612 -.00000268  00000+0 -80356-3 0  9990
2 45137  87.8823  32.0119 0001882  92.0745 268.0597 13.10369636311033
ONEWEB-0025             
1 45138U 20008H   26189.50017620 -.00000296  00000+0 -88362-3 0  9996
2 45138  87.8825  32.0021 0002284  82.1440 277.9947 13.10368863311362
ONEWEB-0026             
1 45139U 20008J   26189.44536937  .00000395  00000+0  10798-2 0  9992
2 45139  87.8879  16.8348 0001979  91.9137 268.2218 13.11414779313898
ONEWEB-0028             
1 45140U 20008K   26189.49708204  .00000351  00000+0  95384-3 0  9994
2 45140  87.8875  16.8318 0001403  74.6514 285.4769 13.11417992311410
ONEWEB-0032             
1 45141U 20008L   26189.53441789  .00000087  00000+0  21225-3 0  9991
2 45141  87.8821  32.0160 0001566  72.1176 288.0122 13.10375858311093
ONEWEB-0033             
1 45142U 20008M   26189.27971970 -.00000585  00000+0 -17136-2 0  9993
2 45142  87.8813  32.0735 0002145  98.7262 261.4108 13.10370982310975
ONEWEB-0035             
1 45143U 20008N   26189.52932744  .00002111  00000+0  60110-2 0  9993
2 45143  87.8818  32.0164 0001708  90.4405 269.6918 13.10364305310734
ONEWEB-0036             
1 45144U 20008P   26189.27791325 -.00000528  00000+0 -15479-2 0  9994
2 45144  87.8829  32.0831 0001720  79.7205 280.4117 13.10367370311121
ONEWEB-0038             
1 45145U 20008Q   26189.22678361 -.00000114  00000+0 -35680-3 0  9992
2 45145  87.8895  16.8901 0001456 149.4472 210.6741 13.11414831313081
ONEWEB-0039             
1 45146U 20008R   26189.51219518 -.00000335  00000+0 -99518-3 0  9995
2 45146  87.8811  32.0178 0001341  72.4294 287.6980 13.10371529310953
ONEWEB-0040             
1 45147U 20008S   26189.27632150 -.00000489  00000+0 -14362-2 0  9993
2 45147  87.8812  32.0756 0001954  77.7823 282.3523 13.10369705310625
ONEWEB-0043             
1 45149U 20008U   26189.27817608 -.00000591  00000+0 -17293-2 0  9998
2 45149  87.8821  32.0641 0001433  73.4915 286.6370 13.10365445310946
ONEWEB-0044             
1 45150U 20008V   26189.30691688  .00000188  00000+0  50209-3 0  9997
2 45150  87.8827  32.0599 0001786  81.3722 278.7607 13.10377522311249
ONEWEB-0045             
1 45151U 20008W   26189.22156148  .00000171  00000+0  44791-3 0  9997
2 45151  87.8887  16.8726 0001714  89.1000 271.0324 13.11414888313167
ONEWEB-0047             
1 45152U 20008X   26189.52902501 -.00000201  00000+0 -61096-3 0  9996
2 45152  87.8828  32.0150 0001823  93.0347 267.0989 13.10375086310998
ONEWEB-0048             
1 45153U 20008Y   26189.60043623 -.00001295  00000+0 -37473-2 0  9992
2 45153  87.8828  32.0216 0001862  87.7478 272.3862 13.10365621310612
ONEWEB-0049             
1 45154U 20008Z   26189.60367749 -.00000323  00000+0 -96265-3 0  9997
2 45154  87.8818  32.0090 0002009  75.5666 284.5684 13.10374468310830
ONEWEB-0051             
1 45155U 20008AA  26189.21987303  .00000181  00000+0  47553-3 0  9995
2 45155  87.8879  16.8789 0001850  89.3363 270.7977 13.11415913313841
ONEWEB-0052             
1 45156U 20008AB  26189.31893978  .00000583  00000+0  16344-2 0  9990
2 45156  87.8821  32.0525 0001988  75.0919 285.0429 13.10375676310701
