OBJECT_NAME,OBJECT_ID,EPOCH,MEAN_MOTION,ECCENTRICITY,INCLINATION,RA_OF_ASC_NODE,ARG_OF_PERICENTER,MEAN_ANOMALY,EPHEMERIS_TYPE,CLASSIFICATION_TYPE,NORAD_CAT_ID,ELEMENT_SET_NO,REV_AT_EPOCH,BSTAR,MEAN_MOTION_DOT,MEAN_MOTION_DDOT
ONEWEB-0012,2019-010A,2026-07-08T09:07:38.964576,13.16595956,.0001716,87.9077,224.5757,90.6942,269.4386,0,U,44057,999,35435,.20089565E-3,.9E-6,0
ONEWEB-0010,2019-010B,2026-07-08T07:54:43.009344,13.16593145,.00022211,87.9080,224.5819,103.0186,257.1193,0,U,44058,999,35439,-.737433E-6,.13E-6,0
ONEWEB-0008,2019-010C,2026-07-08T13:59:29.805504,13.16593264,.0002273,87.9086,224.5266,89.9105,270.2286,0,U,44059,999,35454,-.35084729E-3,-.121E-5,0
ONEWEB-0007,2019-010D,2026-07-08T11:35:29.863392,13.15548020,.0001875,87.8990,254.9783,104.6496,255.4842,0,U,44060,999,35417,.36907776E-3,.152E-5,0
ONEWEB-0006,2019-010E,2026-07-08T09:51:40.528800,13.15551184,.0002224,87.9002,254.9591,99.4557,260.6825,0,U,44061,999,35421,.56810074E-3,.227E-5,0
ONEWEB-0011,2019-010F,2026-07-08T10:55:33.222432,13.15549090,.00022697,87.9001,254.9603,98.9074,261.2313,0,U,44062,999,35421,-.14879187E-3,-.43E-6,0
ONEWEB-0013,2020-008A,2026-07-08T13:33:40.704480,13.09461514,.00012318,87.8506,48.5107,50.7693,309.3543,0,U,45131,999,30886,-.18724839E-2,-.632E-5,0
ONEWEB-0017,2020-008B,2026-07-08T12:46:55.706016,13.10377714,.00019545,87.8819,32.0148,92.0754,268.0597,0,U,45132,999,31074,.41896193E-4,.27E-6,0
ONEWEB-0020,2020-008C,2026-07-08T12:02:54.026880,13.10369241,.00018603,87.8817,32.0201,85.5796,274.5544,0,U,45133,999,31113,-.10398661E-2,-.35E-5,0
ONEWEB-0021,2020-008D,2026-07-08T14:14:49.704576,13.10372242,.00016905,87.8813,32.0165,88.2363,271.8958,0,U,45134,999,31145,-.20645041E-2,-.708E-5,0
ONEWEB-0023,2020-008F,2026-07-08T14:30:43.457760,13.10374787,.00018793,87.8830,31.9981,80.8251,279.3089,0,U,45136,999,31088,-.1269247E-2,-.43E-5,0
ONEWEB-0024,2020-008G,2026-07-08T12:00:38.544768,13.10369636,.00018823,87.8823,32.0119,92.0745,268.0597,0,U,45137,999,31103,-.80355718E-3,-.268E-5,0
ONEWEB-0025,2020-008H,2026-07-08T12:00:15.223680,13.10368863,.00022841,87.8825,32.0021,82.1440,277.9947,0,U,45138,999,31136,-.88362013E-3,-.296E-5,0
ONEWEB-0026,2020-008J,2026-07-08T10:41:19.913568,13.11414779,.00019793,87.8879,16.8348,91.9137,268.2218,0,U,45139,999,31389,.10797745E-2,.395E-5,0
ONEWEB-0028,2020-008K,2026-07-08T11:55:47.888256,13.11417992,.00014035,87.8875,16.8318,74.6514,285.4769,0,U,45140,999,31141,.95383515E-3,.351E-5,0
ONEWEB-0032,2020-008L,2026-07-08T12:49:33.705696,13.10375858,.00015666,87.8821,32.0160,72.1176,288.0122,0,U,45141,999,31109,.21225276E-3,.87E-6,0
ONEWEB-0033,2020-008M,2026-07-08T06:42:47.782080,13.10370982,.00021456,87.8813,32.0735,98.7262,261.4108,0,U,45142,999,31097,-.17136473E-2,-.585E-5,0
ONEWEB-0035,2020-008N,2026-07-08T12:42:13.890816,13.10364305,.0001708,87.8818,32.0164,90.4405,269.6918,0,U,45143,999,31073,.60110451E-2,.2111E-4,0
ONEWEB-0036,2020-008P,2026-07-08T06:40:11.704800,13.10367370,.00017205,87.8829,32.0831,79.7205,280.4117,0,U,45144,999,31112,-.1547898E-2,-.528E-5,0
ONEWEB-0038,2020-008Q,2026-07-08T05:26:34.103904,13.11414831,.00014562,87.8895,16.8901,149.4472,210.6741,0,U,45145,999,31308,-.35679604E-3,-.114E-5,0
ONEWEB-0039,2020-008R,2026-07-08T12:17:33.663552,13.10371529,.00013419,87.8811,32.0178,72.4294,287.6980,0,U,45146,999,31095,-.99518226E-3,-.335E-5,0
ONEWEB-0040,2020-008S,2026-07-08T06:37:54.177600,13.10369705,.00019544,87.8812,32.0756,77.7823,282.3523,0,U,45147,999,31062,-.14362187E-2,-.489E-5,0
ONEWEB-0043,2020-008U,2026-07-08T06:40:34.413312,13.10365445,.0001433,87.8821,32.0641,73.4915,286.6370,0,U,45149,999,31094,-.17292648E-2,-.591E-5,0
ONEWEB-0044,2020-008V,2026-07-08T07:21:57.618432,13.10377522,.00017867,87.8827,32.0599,81.3722,278.7607,0,U,45150,999,31124,.50208521E-3,.188E-5,0
ONEWEB-0045,2020-008W,2026-07-08T05:19:02.911872,13.11414888,.00017145,87.8887,16.8726,89.1000,271.0324,0,U,45151,999,31316,.44791394E-3,.171E-5,0
ONEWEB-0047,2020-008X,2026-07-08T12:41:47.760864,13.10375086,.00018233,87.8828,32.0150,93.0347,267.0989,0,U,45152,999,31099,-.61096247E-3,-.201E-5,0
ONEWEB-0048,2020-008Y,2026-07-08T14:24:37.690272,13.10365621,.00018622,87.8828,32.0216,87.7478,272.3862,0,U,45153,999,31061,-.37472688E-2,-.1295E-4,0
ONEWEB-0049,2020-008Z,2026-07-08T14:29:17.735136,13.10374468,.00020095,87.8818,32.0090,75.5666,284.5684,0,U,45154,999,31083,-.96265281E-3,-.323E-5,0
ONEWEB-0051,2020-008AA,2026-07-08T05:16:37.029792,13.11415913,.00018504,87.8879,16.8789,89.3363,270.7977,0,U,45155,999,31384,.47552764E-3,.181E-5,0
ONEWEB-0052,2020-008AB,2026-07-08T07:39:16.396992,13.10375676,.00019886,87.8821,32.0525,75.0919,285.0429,0,U,45156,999,31070,.16344315E-2,.583E-5,0
